SYRACUSE 4B             
1 57214U 23093B   26193.41909081  .00000000  00000+0  00000+0 0  9997
2 57214   0.0288  52.3332 0000489 204.8511 177.5478  1.00269825  7211
JUPITER 3 (ECHOSTAR 24) 
1 57479U 23108A   26192.46074305  .00000000  00000+0  00000+0 0  9993
2 57479   0.0233  43.6101 0001139  62.3279 254.0746  1.00270308 10897
GALAXY 37 (G-37)        
1 57493U 23112A   26193.50530909  .00000049  00000+0  00000+0 0  9990
2 57493   0.0175  69.1658 0001737  47.5997 228.5358  1.00270887 10790
LUDI TANCE-4 01A        
1 57624U 23120A   26193.61206153 -.00000169  00000+0  00000+0 0  9992
2 57624  15.0881 193.3408 0001259  21.2200  25.7419  1.00276244 10804
TJS-10                  
1 58204U 23169A   26192.76142941 -.00000247  00000+0  00000+0 0  9996
2 58204   2.6050  80.1970 0004055 115.8899 100.0362  1.00274817  9780
ZHONGXING-6E            
1 58253U 23172A   26191.73864204 -.00000352  00000+0  00000+0 0  9990
2 58253   0.0182  60.2036 0002174  50.2192 199.5949  1.00266240  9899
YAOGAN-41               
1 58582U 23197A   26193.65867369 -.00000357  00000+0  00000+0 0  9995
2 58582   3.0836 313.5340 0014268 198.6428 138.6450  1.00266887  9574
OVZON-3                 
1 58698U 24003A   26193.43217753  .00000053  00000+0  00000+0 0  9994
2 58698   0.0152 111.9428 0000274 131.0189 262.6361  1.00272334  7700
INSAT-3DS               
1 58990U 24033A   26193.43668422 -.00000154  00000+0  00000+0 0  9998
2 58990   0.0992 265.2862 0001032 225.9835  38.3381  1.00271186 47322
MERAH PUTIH 2           
1 58995U 24035A   26193.51406275 -.00000357  00000+0  00000+0 0  9995
2 58995   0.0161  77.6893 0001055  36.8475 113.8880  1.00271496  8849
TJS-11                  
1 59020U 24037A   26193.44753277 -.00000357  00000+0  00000+0 0  9996
2 59020   4.1670 327.3893 0001812 147.5463  89.0481  1.00275045  8836
HULIANWAN GAOGUI-01 (H*)
1 59069U 24040A   26193.49836679  .00000157  00000+0  00000+0 0  9993
2 59069   0.0755 330.6497 0001828  67.4323 105.3455  1.00270541  7587
EUTELSAT 36D            
1 59346U 24059A   26193.49871346  .00000000  00000+0  00000+0 0  9998
2 59346   0.0298  54.9849 0000291 185.5561 265.2656  1.00271037  8405
PAKSAT-MM1              
1 59915U 24104A   26193.49923346  .00000155  00000+0  00000+0 0  9990
2 59915   0.0337 157.2252 0001964 299.1280  51.9070  1.00269208  7781
ASTRA 1P (SES-24)       
1 60086U 24115A   26193.49550677  .00000120  00000+0  00000+0 0  9998
2 60086   0.0666 331.4302 0000721 236.8425 279.6997  1.00266996  7450
GOES 19                 
1 60133U 24119A   26193.29819538 -.00000246  00000+0  00000+0 0  9997
2 60133   0.0096 274.3288 0000603 292.0007 116.0078  1.00269743  7218
ZHONGXING-3A            
1 60179U 24122A   26193.51180941 -.00000312  00000+0  00000+0 0  9999
2 60179   0.0288 127.8047 0001600  39.8916  48.5480  1.00270589  7564
TURKSAT 6A              
1 60233U 24127A   26193.21486880  .00000000  00000+0  00000+0 0  9996
2 60233   0.0204 240.3260 0002854 290.4485 238.6789  1.00268755  7262
HULIANWAN GAOGUI-02 (H*)
1 60327U 24135A   26193.59766876 -.00000174  00000+0  00000+0 0  9999
2 60327   0.0472 350.6310 0006392  17.2480 290.8045  1.00270989  7756
ZHONGXING-4A            
1 60606U 24151A   26193.52892066 -.00000360  00000+0  00000+0 0  9998
2 60606   1.2510 270.5214 0000375 302.4906  26.0268  1.00268625  7000
HULIANWAN GAOGUI-03 (H*)
1 61503U 24181A   26193.61900090 -.00000241  00000+0  00000+0 0  9993
2 61503   0.0508 353.8088 0000992  91.6381 350.7920  1.00269970  7088
DSN-3 (KIRAMEKI-3)      
1 61733U 24198A   26193.57961491 -.00000249  00000+0  00000+0 0  9991
2 61733   0.0156 353.2568 0000788 147.4066 142.5238  1.00272424  6178
KOREASAT 6A             
1 61910U 24206A   26193.52892066  .00000000  00000+0  00000+0 0  9998
2 61910   0.0252  69.5797 0000678  20.3634 146.9123  1.00269519  6094
OPTUS-X (ADS-01)        
1 62006U 24212A   26193.62058623 -.00000143  00000+0  00000+0 0  9995
2 62006   0.0169  33.2867 0002356 120.8372 156.1895  1.00270148  6015
GSAT-N2 (GSAT-20)       
1 62028U 24214A   26193.51311064 -.00000018  00000+0  00000+0 0  9991
2 62028   0.0821 263.6321 0002637 141.2598 138.1658  1.00270544  6159
SXM-9                   
1 62259U 24234A   26193.26099877 -.00000203  00000+0  00000+0 0  9992
2 62259   0.0182 333.2441 0005020 342.7559 342.9520  1.00268373  5829
TJS-12                  
1 62374U 24246A   26193.41654399 -.00000229  00000+0  00000+0 0  9994
2 62374   0.6178 301.7291 0001764  96.5528 188.5274  1.00269585  5817
NUVIEW ALPHA            
1 62455U 24252B   26193.26134544 -.00000213  00000+0  00000+0 0  9992
2 62455   0.0450  28.6347 0000902  43.0047 229.4946  1.00270092  4070
AGILA                   
1 62456U 24252C   26193.62614116 -.00000181  00000+0  00000+0 0  9995
2 62456   0.0465 140.2765 0001297  10.3746 157.4463  1.00273342  5417
NUVIEW BRAVO            
1 62457U 24252D   26193.26134544 -.00000213  00000+0  00000+0 0  9994
2 62457   0.0699 161.7273 0001535 354.8014 144.6104  1.00270906  4049
THURAYA-4               
1 62483U 25001A   26193.50044679  .00000140  00000+0  00000+0 0  9990
2 62483   0.0181  67.2214 0000243 207.3454 240.2904  1.00272233  4433
SHIJIAN-25 (SJ-25)      
1 62485U 25002A   26192.53287383 -.00000350  00000+0  00000+0 0  9990
2 62485   5.1685  61.0066 0052161 175.2839  12.2191  1.00264509  5605
