OBJECT_NAME,OBJECT_ID,EPOCH,MEAN_MOTION,ECCENTRICITY,INCLINATION,RA_OF_ASC_NODE,ARG_OF_PERICENTER,MEAN_ANOMALY,EPHEMERIS_TYPE,CLASSIFICATION_TYPE,NORAD_CAT_ID,ELEMENT_SET_NO,REV_AT_EPOCH,BSTAR,MEAN_MOTION_DOT,MEAN_MOTION_DDOT
SYRACUSE 4B,2023-093B,2026-07-12T10:03:29.445984,1.00269825,.00004898,0.0288,52.3332,204.8511,177.5478,0,U,57214,999,721,0,0,0
JUPITER 3 (ECHOSTAR 24),2023-108A,2026-07-11T11:03:28.199520,1.00270308,.0001139,0.0233,43.6101,62.3279,254.0746,0,U,57479,999,1089,0,0,0
GALAXY 37 (G-37),2023-112A,2026-07-12T12:07:38.705376,1.00270887,.00017377,0.0175,69.1658,47.5997,228.5358,0,U,57493,999,1079,0,.49E-6,0
LUDI TANCE-4 01A,2023-120A,2026-07-12T14:41:22.116192,1.00276244,.00012593,15.0881,193.3408,21.2200,25.7419,0,U,57624,999,1080,0,-.169E-5,0
TJS-10,2023-169A,2026-07-11T18:16:27.501024,1.00274817,.0004055,2.6050,80.1970,115.8899,100.0362,0,U,58204,999,978,0,-.247E-5,0
ZHONGXING-6E,2023-172A,2026-07-10T17:43:38.672256,1.00266240,.00021744,0.0182,60.2036,50.2192,199.5949,0,U,58253,999,989,0,-.352E-5,0
YAOGAN-41,2023-197A,2026-07-12T15:48:29.406816,1.00266887,.00142689,3.0836,313.5340,198.6428,138.6450,0,U,58582,999,957,0,-.357E-5,0
OVZON-3,2024-003A,2026-07-12T10:22:20.138592,1.00272334,.00002741,0.0152,111.9428,131.0189,262.6361,0,U,58698,999,770,0,.53E-6,0
INSAT-3DS,2024-033A,2026-07-12T10:28:49.516608,1.00271186,.00010325,0.0992,265.2862,225.9835,38.3381,0,U,58990,999,4732,0,-.154E-5,0
MERAH PUTIH 2,2024-035A,2026-07-12T12:20:15.021600,1.00271496,.00010553,0.0161,77.6893,36.8475,113.8880,0,U,58995,999,884,0,-.357E-5,0
TJS-11,2024-037A,2026-07-12T10:44:26.831328,1.00275045,.0001812,4.1670,327.3893,147.5463,89.0481,0,U,59020,999,883,0,-.357E-5,0
HULIANWAN GAOGUI-01 (HG-01),2024-040A,2026-07-12T11:57:38.890656,1.00270541,.00018287,0.0755,330.6497,67.4323,105.3455,0,U,59069,999,758,0,.157E-5,0
EUTELSAT 36D,2024-059A,2026-07-12T11:58:08.842944,1.00271037,.00002913,0.0298,54.9849,185.5561,265.2656,0,U,59346,999,840,0,0,0
PAKSAT-MM1,2024-104A,2026-07-12T11:58:53.770944,1.00269208,.00019649,0.0337,157.2252,299.1280,51.9070,0,U,59915,999,778,0,.155E-5,0
ASTRA 1P (SES-24),2024-115A,2026-07-12T11:53:31.784928,1.00266996,.00007211,0.0666,331.4302,236.8425,279.6997,0,U,60086,999,745,0,.12E-5,0
GOES 19,2024-119A,2026-07-12T07:09:24.080832,1.00269743,.0000603,0.0096,274.3288,292.0007,116.0078,0,U,60133,999,721,0,-.246E-5,0
ZHONGXING-3A,2024-122A,2026-07-12T12:17:00.333024,1.00270589,.00016,0.0288,127.8047,39.8916,48.5480,0,U,60179,999,756,0,-.312E-5,0
TURKSAT 6A,2024-127A,2026-07-12T05:09:24.664320,1.00268755,.0002854,0.0204,240.3260,290.4485,238.6789,0,U,60233,999,726,0,0,0
HULIANWAN GAOGUI-02 (HG-02),2024-135A,2026-07-12T14:20:38.580864,1.00270989,.00063928,0.0472,350.6310,17.2480,290.8045,0,U,60327,999,775,0,-.174E-5,0
ZHONGXING-4A,2024-151A,2026-07-12T12:41:38.745024,1.00268625,.00003757,1.2510,270.5214,302.4906,26.0268,0,U,60606,999,700,0,-.36E-5,0
HULIANWAN GAOGUI-03 (HG-03),2024-181A,2026-07-12T14:51:21.677760,1.00269970,.00009925,0.0508,353.8088,91.6381,350.7920,0,U,61503,999,708,0,-.241E-5,0
DSN-3 (KIRAMEKI-3),2024-198A,2026-07-12T13:54:38.728224,1.00272424,.00007884,0.0156,353.2568,147.4066,142.5238,0,U,61733,999,617,0,-.249E-5,0
KOREASAT 6A,2024-206A,2026-07-12T12:41:38.745024,1.00269519,.00006788,0.0252,69.5797,20.3634,146.9123,0,U,61910,999,609,0,0,0
OPTUS-X (ADS-01),2024-212A,2026-07-12T14:53:38.650272,1.00270148,.00023567,0.0169,33.2867,120.8372,156.1895,0,U,62006,999,601,0,-.143E-5,0
GSAT-N2 (GSAT-20),2024-214A,2026-07-12T12:18:52.759296,1.00270544,.00026378,0.0821,263.6321,141.2598,138.1658,0,U,62028,999,615,0,-.18E-6,0
SXM-9,2024-234A,2026-07-12T06:15:50.293728,1.00268373,.000502,0.0182,333.2441,342.7559,342.9520,0,U,62259,999,582,0,-.203E-5,0
TJS-12,2024-246A,2026-07-12T09:59:49.400736,1.00269585,.00017646,0.6178,301.7291,96.5528,188.5274,0,U,62374,999,581,0,-.229E-5,0
NUVIEW ALPHA,2024-252B,2026-07-12T06:16:20.246016,1.00270092,.0000902,0.0450,28.6347,43.0047,229.4946,0,U,62455,999,407,0,-.213E-5,0
AGILA,2024-252C,2026-07-12T15:01:38.596224,1.00273342,.00012974,0.0465,140.2765,10.3746,157.4463,0,U,62456,999,541,0,-.181E-5,0
NUVIEW BRAVO,2024-252D,2026-07-12T06:16:20.246016,1.00270906,.0001535,0.0699,161.7273,354.8014,144.6104,0,U,62457,999,404,0,-.213E-5,0
THURAYA-4,2025-001A,2026-07-12T12:00:38.602656,1.00272233,.00002438,0.0181,67.2214,207.3454,240.2904,0,U,62483,999,443,0,.14E-5,0
SHIJIAN-25 (SJ-25),2025-002A,2026-07-11T12:47:20.298912,1.00264509,.0052161,5.1685,61.0066,175.2839,12.2191,0,U,62485,999,560,0,-.35E-5,0
